{
  "type": "FeatureCollection",
  "features": [
    {
      "type": "Feature",
      "properties": {
        "norad_id": 66821,
        "name": "STARLINK-35966",
        "group": "last-30-days",
        "lat": -63.76568336065453,
        "lon": 33.30220798333052,
        "alt_km": 413.4041461438055,
        "timestamp": "2025-12-24T16:52:40.179325+00:00",
        "meta_object_name": "STARLINK-35966",
        "meta_object_id": "2025-280A",
        "meta_epoch": "2025-12-24T06:30:55.929024",
        "meta_mean_motion": 15.52584755,
        "meta_eccentricity": 0.00034391,
        "meta_inclination": 70.0005,
        "meta_ra_of_asc_node": 166.8315,
        "meta_arg_of_pericenter": 272.5192,
        "meta_mean_anomaly": 87.5601,
        "meta_ephemeris_type": 0,
        "meta_classification_type": "U",
        "meta_norad_cat_id": 66821,
        "meta_element_set_no": 999,
        "meta_rev_at_epoch": 472,
        "meta_bstar": 0.00099538982,
        "meta_mean_motion_dot": 0.00061693,
        "meta_mean_motion_ddot": 0,
        "tle_line1": "1 66821U 25280A   25358.27148066  .00061693  00000+0  99539-3 0  9999",
        "tle_line2": "2 66821  70.0005 166.8315 0003439 272.5192  87.5601 15.52584755  4721"
      },
      "geometry": {
        "type": "Point",
        "coordinates": [
          33.30220798333052,
          -63.76568336065453
        ]
      }
    },
    {
      "type": "Feature",
      "properties": {
        "norad_id": 66822,
        "name": "STARLINK-35958",
        "group": "last-30-days",
        "lat": -64.96027133100436,
        "lon": 36.878116420492496,
        "alt_km": 413.2796591902097,
        "timestamp": "2025-12-24T16:52:40.179335+00:00",
        "meta_object_name": "STARLINK-35958",
        "meta_object_id": "2025-280B",
        "meta_epoch": "2025-12-24T01:52:06.335040",
        "meta_mean_motion": 15.525603,
        "meta_eccentricity": 0.00034842,
        "meta_inclination": 70.0003,
        "meta_ra_of_asc_node": 167.36,
        "meta_arg_of_pericenter": 274.0507,
        "meta_mean_anomaly": 86.0281,
        "meta_ephemeris_type": 0,
        "meta_classification_type": "U",
        "meta_norad_cat_id": 66822,
        "meta_element_set_no": 999,
        "meta_rev_at_epoch": 469,
        "meta_bstar": 0.001424919,
        "meta_mean_motion_dot": 0.00088611,
        "meta_mean_motion_ddot": 0,
        "tle_line1": "1 66822U 25280B   25358.07785110  .00088611  00000+0  14249-2 0  9998",
        "tle_line2": "2 66822  70.0003 167.3600 0003484 274.0507  86.0281 15.52560300  4694"
      },
      "geometry": {
        "type": "Point",
        "coordinates": [
          36.878116420492496,
          -64.96027133100436
        ]
      }
    },
    {
      "type": "Feature",
      "properties": {
        "norad_id": 66823,
        "name": "STARLINK-35957",
        "group": "last-30-days",
        "lat": -66.00266797473287,
        "lon": 40.54584393814526,
        "alt_km": 413.3206644723941,
        "timestamp": "2025-12-24T16:52:40.179348+00:00",
        "meta_object_name": "STARLINK-35957",
        "meta_object_id": "2025-280C",
        "meta_epoch": "2025-12-24T06:29:57.095808",
        "meta_mean_motion": 15.52566085,
        "meta_eccentricity": 0.00034442,
        "meta_inclination": 70.0003,
        "meta_ra_of_asc_node": 166.8283,
        "meta_arg_of_pericenter": 272.9377,
        "meta_mean_anomaly": 87.1416,
        "meta_ephemeris_type": 0,
        "meta_classification_type": "U",
        "meta_norad_cat_id": 66823,
        "meta_element_set_no": 999,
        "meta_rev_at_epoch": 472,
        "meta_bstar": 0.0017286911,
        "meta_mean_motion_dot": 0.00107821,
        "meta_mean_motion_ddot": 0,
        "tle_line1": "1 66823U 25280C   25358.27079972  .00107821  00000+0  17287-2 0  9993",
        "tle_line2": "2 66823  70.0003 166.8283 0003444 272.9377  87.1416 15.52566085  4726"
      },
      "geometry": {
        "type": "Point",
        "coordinates": [
          40.54584393814526,
          -66.00266797473287
        ]
      }
    },
    {
      "type": "Feature",
      "properties": {
        "norad_id": 66824,
        "name": "STARLINK-35896",
        "group": "last-30-days",
        "lat": -66.97060313554428,
        "lon": 44.60555565119942,
        "alt_km": 413.51894063282,
        "timestamp": "2025-12-24T16:52:40.179358+00:00",
        "meta_object_name": "STARLINK-35896",
        "meta_object_id": "2025-280D",
        "meta_epoch": "2025-12-24T06:29:27.585888",
        "meta_mean_motion": 15.52557557,
        "meta_eccentricity": 0.0003315,
        "meta_inclination": 70.0003,
        "meta_ra_of_asc_node": 166.8271,
        "meta_arg_of_pericenter": 280.2614,
        "meta_mean_anomaly": 79.8199,
        "meta_ephemeris_type": 0,
        "meta_classification_type": "U",
        "meta_norad_cat_id": 66824,
        "meta_element_set_no": 999,
        "meta_rev_at_epoch": 472,
        "meta_bstar": 0.0016564397,
        "meta_mean_motion_dot": 0.00103214,
        "meta_mean_motion_ddot": 0,
        "tle_line1": "1 66824U 25280D   25358.27045817  .00103214  00000+0  16564-2 0  9994",
        "tle_line2": "2 66824  70.0003 166.8271 0003315 280.2614  79.8199 15.52557557  4727"
      },
      "geometry": {
        "type": "Point",
        "coordinates": [
          44.60555565119942,
          -66.97060313554428
        ]
      }
    },
    {
      "type": "Feature",
      "properties": {
        "norad_id": 66825,
        "name": "STARLINK-35476",
        "group": "last-30-days",
        "lat": -67.85038784150997,
        "lon": 49.116064241306276,
        "alt_km": 413.2730605751958,
        "timestamp": "2025-12-24T16:52:40.179368+00:00",
        "meta_object_name": "STARLINK-35476",
        "meta_object_id": "2025-280E",
        "meta_epoch": "2025-12-24T06:28:57.753696",
        "meta_mean_motion": 15.52569314,
        "meta_eccentricity": 0.00035478,
        "meta_inclination": 70.0004,
        "meta_ra_of_asc_node": 166.8256,
        "meta_arg_of_pericenter": 276.765,
        "meta_mean_anomaly": 83.3133,
        "meta_ephemeris_type": 0,
        "meta_classification_type": "U",
        "meta_norad_cat_id": 66825,
        "meta_element_set_no": 999,
        "meta_rev_at_epoch": 472,
        "meta_bstar": 0.0016641399,
        "meta_mean_motion_dot": 0.00103748,
        "meta_mean_motion_ddot": 0,
        "tle_line1": "1 66825U 25280E   25358.27011289  .00103748  00000+0  16641-2 0  9999",
        "tle_line2": "2 66825  70.0004 166.8256 0003547 276.7650  83.3133 15.52569314  4721"
      },
      "geometry": {
        "type": "Point",
        "coordinates": [
          49.116064241306276,
          -67.85038784150997
        ]
      }
    },
    {
      "type": "Feature",
      "properties": {
        "norad_id": 66826,
        "name": "STARLINK-35898",
        "group": "last-30-days",
        "lat": -68.58626997827204,
        "lon": 53.874765148624505,
        "alt_km": 413.25226015640874,
        "timestamp": "2025-12-24T16:52:40.179378+00:00",
        "meta_object_name": "STARLINK-35898",
        "meta_object_id": "2025-280F",
        "meta_epoch": "2025-12-24T06:28:28.202304",
        "meta_mean_motion": 15.52563025,
        "meta_eccentricity": 0.00034665,
        "meta_inclination": 70.0005,
        "meta_ra_of_asc_node": 166.8242,
        "meta_arg_of_pericenter": 272.4316,
        "meta_mean_anomaly": 87.6474,
        "meta_ephemeris_type": 0,
        "meta_classification_type": "U",
        "meta_norad_cat_id": 66826,
        "meta_element_set_no": 999,
        "meta_rev_at_epoch": 472,
        "meta_bstar": 0.0019255513,
        "meta_mean_motion_dot": 0.00120295,
        "meta_mean_motion_ddot": 0,
        "tle_line1": "1 66826U 25280F   25358.26977086  .00120295  00000+0  19256-2 0  9996",
        "tle_line2": "2 66826  70.0005 166.8242 0003466 272.4316  87.6474 15.52563025  4728"
      },
      "geometry": {
        "type": "Point",
        "coordinates": [
          53.874765148624505,
          -68.58626997827204
        ]
      }
    },
    {
      "type": "Feature",
      "properties": {
        "norad_id": 66827,
        "name": "STARLINK-35959",
        "group": "last-30-days",
        "lat": -69.17213738524138,
        "lon": 58.855154462731726,
        "alt_km": 413.56564683066335,
        "timestamp": "2025-12-24T16:52:40.179388+00:00",
        "meta_object_name": "STARLINK-35959",
        "meta_object_id": "2025-280G",
        "meta_epoch": "2025-12-24T06:27:58.651776",
        "meta_mean_motion": 15.52560214,
        "meta_eccentricity": 0.00031561,
        "meta_inclination": 70.0004,
        "meta_ra_of_asc_node": 166.8226,
        "meta_arg_of_pericenter": 278.0968,
        "meta_mean_anomaly": 81.9861,
        "meta_ephemeris_type": 0,
        "meta_classification_type": "U",
        "meta_norad_cat_id": 66827,
        "meta_element_set_no": 999,
        "meta_rev_at_epoch": 472,
        "meta_bstar": 0.0015279462,
        "meta_mean_motion_dot": 0.00095104,
        "meta_mean_motion_ddot": 0,
        "tle_line1": "1 66827U 25280G   25358.26942884  .00095104  00000+0  15279-2 0  9996",
        "tle_line2": "2 66827  70.0004 166.8226 0003156 278.0968  81.9861 15.52560214  4725"
      },
      "geometry": {
        "type": "Point",
        "coordinates": [
          58.855154462731726,
          -69.17213738524138
        ]
      }
    }
  ]
}